IRIDIUM 921 [-]         
1 24873U 97034E   24109.82647601  .00038288  00000+0  11189-2 0  9997
2 24873  86.3813 317.4280 0005885 108.5164 251.6727 15.35115890466342
IRIDIUM 26 [-]          
1 24903U 97043A   24109.55632316  .00001200  00000+0  40444-3 0  9999
2 24903  86.3904 288.7925 0002284  87.7874 272.3585 14.36285805396246
IRIDIUM 22 [-]          
1 24907U 97043E   24109.49617728  .00001123  00000+0  38652-3 0  9998
2 24907  86.3908 292.0100 0002080  91.1441 268.9994 14.35177630395845
DUMMY MASS 1 [-]        
1 24925U 97048A   24109.60564033  .00000983  00000+0  10901-3 0  9996
2 24925  86.3346 331.5357 0005920 191.2840 168.8252 14.86140047442054
DUMMY MASS 2 [-]        
1 24926U 97048B   24109.56524217  .00000981  00000+0  10940-3 0  9993
2 24926  86.3349 333.0864 0006224 206.3658 153.7250 14.85899003442076
IRIDIUM 29 [-]          
1 24944U 97051A   24109.58743723  .00000938  00000+0  31859-3 0  9998
2 24944  86.3942 321.9096 0002022  94.6128 265.5300 14.35634847392339
IRIDIUM 33 [-]          
1 24946U 97051C   24109.55865949  .00000639  00000+0  22058-3 0  9991
2 24946  86.3855 321.1772 0009037  36.7226 323.4587 14.34312602391876
IRIDIUM 28 [-]          
1 24948U 97051E   24109.56113739  .00000940  00000+0  31335-3 0  9990
2 24948  86.3943 319.6790 0002423  80.3245 279.8225 14.36583891392861
